ONEWEB-0269             
1 48987U 21060W   23192.98894900  .00000108  00000+0  24887-3 0  9999
2 48987  87.9011  82.0169 0001927  77.1677 282.9669 13.16592051 99973
ONEWEB-0270             
1 48988U 21060X   23192.92983091  .00000062  00000+0  12801-3 0  9996
2 48988  87.9025  82.0583 0001054  83.1427 276.9824 13.16596807100017
ONEWEB-0271             
1 48989U 21060Y   23192.08121732  .00000046  00000+0  86739-4 0  9994
2 48989  87.9026  82.2034 0001371  68.7778 291.3499 13.16595070 99884
ONEWEB-0272             
1 48990U 21060Z   23192.25643448 -.00000013  00000+0 -68771-4 0  9990
2 48990  87.9014  82.1531 0001604  69.5239 290.6064 13.16596111 99869
ONEWEB-0273             
1 48991U 21060AA  23193.11349821 -.00000007  00000+0 -51084-4 0  9997
2 48991  87.9021  82.0119 0001610  78.9458 281.1854 13.16595801 99950
ONEWEB-0274             
1 48992U 21060AB  23192.98685584  .00000154  00000+0  36992-3 0  9992
2 48992  87.9025  82.0393 0001525  74.1507 285.9792 13.16592756 99978
ONEWEB-0275             
1 48993U 21060AC  23193.12826598 -.00000064  00000+0 -20008-3 0  9995
2 48993  87.9025  82.0141 0001860  77.1970 282.9369 13.16597149 99911
ONEWEB-0276             
1 48994U 21060AD  23193.16206286  .00000050  00000+0  97036-4 0  9995
2 48994  87.9004  81.9823 0001467  77.1165 283.0130 13.16595356 99942
ONEWEB-0277             
1 48995U 21060AE  23192.26276428  .00000028  00000+0  40920-4 0  9996
2 48995  87.9004  82.1648 0001369  68.2672 291.8605 13.16595131 99806
ONEWEB-0278             
1 48996U 21060AF  23192.10021466 -.00000055  00000+0 -17698-3 0  9997
2 48996  87.9025  82.2033 0002014  88.9405 271.1957 13.16595272 99931
ONEWEB-0279             
1 48997U 21060AG  23191.95667191 -.00000098  00000+0 -28905-3 0  9991
2 48997  87.9020  82.2315 0001858  76.6244 283.5094 13.16593376 99831
ONEWEB-0280             
1 48998U 21060AH  23192.19941367 -.00000351  00000+0 -95229-3 0  9994
2 48998  87.9015  82.1856 0001267  54.6446 305.4803 13.16594065 99792
ONEWEB-0281             
1 48999U 21060AJ  23193.11773709  .00000032  00000+0  51054-4 0  9994
2 48999  87.9022  82.0021 0002054  72.9833 287.1523 13.16594281100004
ONEWEB-0282             
1 49000U 21060AK  23192.99529091  .00000047  00000+0  88389-4 0  9993
2 49000  87.9007  82.0052 0001433  79.1386 280.9906 13.16593172 99974
ONEWEB-0283             
1 49001U 21060AL  23191.99678123  .00000023  00000+0  26293-4 0  9994
2 49001  87.9036  82.2068 0001543  70.1591 289.9706 13.16595308 99854
ONEWEB-0284             
1 49002U 21060AM  23192.21843075  .00000103  00000+0  23589-3 0  9994
2 49002  87.9020  82.2199 0001508  83.0684 277.0618 13.16594853 99854
ONEWEB-0285             
1 49075U 21075A   23192.77881016  .00000297  00000+0  79062-3 0  9999
2 49075  87.8992 203.5816 0001952  91.5134 268.6218 13.12444897 95656
ONEWEB-0286             
1 49076U 21075B   23192.97573842 -.00000301  00000+0 -87258-3 0  9991
2 49076  87.8997 203.5490 0002487  84.5457 275.5955 13.12440063 95032
ONEWEB-0287             
1 49077U 21075C   23192.78570572 -.00000019  00000+0 -82680-4 0  9999
2 49077  87.9162 218.7514 0002298 101.4645 258.6744 13.17650002 93500
ONEWEB-0288             
1 49078U 21075D   23192.42728068 -.00000042  00000+0 -15118-3 0  9993
2 49078  87.9000 203.6619 0002153  92.2083 267.9292 13.12441474 95592
ONEWEB-0289             
1 49079U 21075E   23193.04030193  .00000026  00000+0  32727-4 0  9994
2 49079  87.9158 218.6727 0001988  88.2521 271.8839 13.17650787 94112
ONEWEB-0290             
1 49080U 21075F   23193.02244475  .00000032  00000+0  48115-4 0  9999
2 49080  87.9160 218.6980 0001952 102.7088 257.4262 13.17650540 93531
ONEWEB-0291             
1 49081U 21075G   23192.77900913 -.00000006  00000+0 -47363-4 0  9994
2 49081  87.9159 218.7325 0002251  95.4514 264.6874 13.17651454 93500
ONEWEB-0293             
1 49082U 21075H   23193.03138649  .00000029  00000+0  40573-4 0  9993
2 49082  87.9160 218.6713 0002145  99.1555 260.9819 13.17648427 93550
ONEWEB-0294             
1 49083U 21075J   23192.73751407 -.00000101  00000+0 -31487-3 0  9999
2 49083  87.8998 203.5994 0001787 101.0608 259.0722 13.12442840 95028
ONEWEB-0295             
1 49084U 21075K   23193.03359910  .00000010  00000+0 -83340-5 0  9992
2 49084  87.9164 218.6375 0002599 100.2247 259.9178 13.17644941 93491
ONEWEB-0296             
1 49085U 21075L   23192.72162658  .00000406  00000+0  10944-2 0  9994
2 49085  87.8999 203.6006 0002799 104.5153 255.6286 13.12442238 95021
ONEWEB-0297             
1 49086U 21075M   23192.75129439 -.00000427  00000+0 -12232-2 0  9995
2 49086  87.8991 203.5803 0002200  80.5315 279.6062 13.12440049 95631
ONEWEB-0298             
1 49087U 21075N   23192.80803543 -.00000284  00000+0 -76458-3 0  9999
2 49087  87.9162 218.7045 0002333  86.9747 273.1652 13.17648208 93527
ONEWEB-0299             
1 49088U 21075P   23192.43060973  .00000073  00000+0  15443-3 0  9992
2 49088  87.9158 218.8166 0002405  92.9904 267.1503 13.17648725 93432
ONEWEB-0300             
1 49089U 21075Q   23192.43784275 -.00000348  00000+0 -10038-2 0  9992
2 49089  87.9000 203.6560 0002126  82.4298 277.7072 13.12443968 95616
ONEWEB-0301             
1 49090U 21075R   23192.72799774  .00000200  00000+0  51997-3 0  9991
2 49090  87.8998 203.6010 0001829  80.5910 279.5425 13.12441755 95010
ONEWEB-0302             
1 49091U 21075S   23192.25891418  .00000386  00000+0  10369-2 0  9990
2 49091  87.8995 203.6919 0002163  95.6611 264.4764 13.12443280 94948
ONEWEB-0304             
1 49092U 21075T   23192.78793403  .00000018  00000+0  13142-4 0  9990
2 49092  87.9164 218.7158 0002317  92.5967 267.5430 13.17650384 93461
ONEWEB-0305             
1 49093U 21075U   23192.77679029  .00000025  00000+0  31755-4 0  9995
2 49093  87.9161 218.7503 0002633  94.0214 266.1219 13.17650974 93483
ONEWEB-0308             
1 49094U 21075V   23192.40609166  .00000454  00000+0  12279-2 0  9995
2 49094  87.8998 203.6639 0002031  85.6480 274.4881 13.12438462 94970
ONEWEB-0309             
1 49095U 21075W   23192.78347452  .00000029  00000+0  40863-4 0  9994
2 49095  87.9159 218.7547 0002149 104.4846 255.6524 13.17647389 93476
ONEWEB-0310             
1 49096U 21075X   23192.72270148  .00000473  00000+0  12798-2 0  9993
2 49096  87.8991 203.5849 0001886  97.4344 262.6999 13.12441821 95641
ONEWEB-0311             
1 49097U 21075Y   23192.79016381 -.00002276  00000+0 -58961-2 0  9995
2 49097  87.9161 218.7564 0002633  86.3541 273.7892 13.17658992 93536
ONEWEB-0312             
1 49098U 21075Z   23193.02914898 -.00000001  00000+0 -36700-4 0  9996
2 49098  87.9160 218.6760 0002517 102.8674 257.2739 13.17649515 93522
ONEWEB-0313             
1 49099U 21075AA  23192.78122818 -.00000302  00000+0 -81142-3 0  9995
2 49099  87.9156 218.7453 0002389  97.2389 262.9014 13.17648882 93508
ONEWEB-0314             
1 49100U 21075AB  23192.77454585  .00000006  00000+0 -16934-4 0  9994
2 49100  87.9159 218.7539 0002586 100.7230 259.4193 13.17648227 93460
ONEWEB-0315             
1 49101U 21075AC  23191.77926622  .00000267  00000+0  70796-3 0  9993
2 49101  87.8997 203.7817 0002079  80.3315 279.8049 13.12445573 95504
ONEWEB-0316             
1 49102U 21075AD  23192.40339719  .00000026  00000+0  33947-4 0  9991
2 49102  87.9250 188.5696 0002365  84.3656 275.7745 13.18685253 96969
ONEWEB-0317             
1 49103U 21075AE  23192.76609614 -.00000121  00000+0 -37213-3 0  9992
2 49103  87.8998 203.5923 0001949  97.8439 262.2911 13.12444254 95642
ONEWEB-0318             
1 49104U 21075AF  23192.24952425  .00000033  00000+0  49763-4 0  9991
2 49104  87.9250 188.5889 0002431  82.7722 277.3686 13.18687075 96893
ONEWEB-0319             
1 49105U 21075AG  23192.79240449  .00000003  00000+0 -25074-4 0  9995
2 49105  87.9159 218.7181 0002836  87.1254 273.0202 13.17648254 93508
ONEWEB-0323             
1 49106U 21075AH  23191.76548429 -.00000253  00000+0 -73969-3 0  9994
2 49106  87.8995 203.7801 0002316  89.4702 270.6692 13.12444502 94888
ONEWEB-0329             
1 49107U 21075AJ  23193.02467712  .00000016  00000+0  77020-5 0  9990
2 49107  87.9160 218.6734 0002338  95.2624 264.8775 13.17647023 93510
ONEWEB-0330             
1 49108U 21075AK  23193.02692522  .00000057  00000+0  11432-3 0  9998
2 49108  87.9159 218.6907 0002257  98.8123 261.3264 13.17648306 93558
ONEWEB-0292             
1 49186U 21083A   23192.42117517 -.00000025  00000+0 -10401-3 0  9994
2 49186  87.9057 173.3842 0002127  82.0259 278.1111 13.13472402 91527
ONEWEB-0303             
1 49187U 21083B   23192.70056325  .00000059  00000+0  11603-3 0  9995
2 49187  87.9250 188.5026 0002358  85.5986 274.5415 13.18687515 90047
ONEWEB-0306             
1 49188U 21083C   23192.38861462  .00000048  00000+0  87986-4 0  9992
2 49188  87.9249 188.5526 0002239  79.8047 280.3337 13.18688763 90047
ONEWEB-0307             
1 49189U 21083D   23192.41696069  .00000065  00000+0  14270-3 0  9990
2 49189  87.9056 173.3837 0002027  86.5422 273.5939 13.13468449 91526
ONEWEB-0320             
1 49190U 21083E   23192.69847339  .00002250  00000+0  56742-2 0  9997
2 49190  87.9251 188.5128 0001969  87.3382 272.7976 13.18675276 90045
ONEWEB-0321             
1 49191U 21083F   23191.86408806  .00000073  00000+0  14855-3 0  9999
2 49191  87.9249 127.9391 0001750  71.8239 288.3085 13.20769138 96560
ONEWEB-0322             
1 49192U 21083G   23192.41271956  .00000220  00000+0  56860-3 0  9992
2 49192  87.9058 173.3741 0001521  99.8680 260.2621 13.13467966 91510
ONEWEB-0324             
1 49193U 21083H   23192.68369211  .00000050  00000+0  95005-4 0  9990
2 49193  87.9249 188.4972 0002494  87.6174 272.5244 13.18686974 90062
ONEWEB-0325             
1 49194U 21083J   23192.68791529 -.00000013  00000+0 -64462-4 0  9996
2 49194  87.9228 188.3757 0002023  84.3408 275.7955 13.18690511 90079
